[{"OBJECT_NAME":"STARLINK-30278","OBJECT_ID":"2023-124F","EPOCH":"2026-03-09T16:46:42.610656","MEAN_MOTION":15.30195609,"ECCENTRICITY":0.00012414,"INCLINATION":53.1615,"RA_OF_ASC_NODE":206.9968,"ARG_OF_PERICENTER":72.608,"MEAN_ANOMALY":287.5057,"EPHEMERIS_TYPE":0,"CLASSIFICATION_TYPE":"U","NORAD_CAT_ID":57668,"ELEMENT_SET_NO":999,"REV_AT_EPOCH":14356,"BSTAR":4.140443e-5,"MEAN_MOTION_DOT":8.67e-6,"MEAN_MOTION_DDOT":0},{"OBJECT_NAME":"ELECTRON KICK STAGE R\/B","OBJECT_ID":"2024-248B","EPOCH":"2026-03-09T20:49:52.700448","MEAN_MOTION":15.26602112,"ECCENTRICITY":0.00382118,"INCLINATION":97.6105,"RA_OF_ASC_NODE":34.9036,"ARG_OF_PERICENTER":284.4829,"MEAN_ANOMALY":75.2171,"EPHEMERIS_TYPE":0,"CLASSIFICATION_TYPE":"U","NORAD_CAT_ID":62407,"ELEMENT_SET_NO":999,"REV_AT_EPOCH":6727,"BSTAR":0.0006831254,"MEAN_MOTION_DOT":0.00018217,"MEAN_MOTION_DDOT":0}]
